[{"OBJECT_NAME":"STARLINK-34313","OBJECT_ID":"2025-112W","EPOCH":"2026-03-09T17:10:59.408832","MEAN_MOTION":15.05652387,"ECCENTRICITY":0.00013007,"INCLINATION":97.602,"RA_OF_ASC_NODE":121.5735,"ARG_OF_PERICENTER":101.9489,"MEAN_ANOMALY":258.1883,"EPHEMERIS_TYPE":0,"CLASSIFICATION_TYPE":"U","NORAD_CAT_ID":64166,"ELEMENT_SET_NO":999,"REV_AT_EPOCH":4331,"BSTAR":0.00023260797,"MEAN_MOTION_DOT":3.297e-5,"MEAN_MOTION_DDOT":0},{"OBJECT_NAME":"PSLV DEB","OBJECT_ID":"2001-049AH","EPOCH":"2026-03-09T23:39:21.767904","MEAN_MOTION":14.98984537,"ECCENTRICITY":0.00513683,"INCLINATION":98.1237,"RA_OF_ASC_NODE":87.2704,"ARG_OF_PERICENTER":48.4953,"MEAN_ANOMALY":9.0267,"EPHEMERIS_TYPE":0,"CLASSIFICATION_TYPE":"U","NORAD_CAT_ID":27089,"ELEMENT_SET_NO":999,"REV_AT_EPOCH":31452,"BSTAR":0.000212521,"MEAN_MOTION_DOT":2.577e-5,"MEAN_MOTION_DDOT":0}]
